start=new Date('2022-09-04T00:00:00.000Z').valueOf();
sats=[{"REF_FRAME":"TEME","MEAN_ANOMALY":"98.6481","MEAN_ELEMENT_THEORY":"SGP4","TIME_SYSTEM":"UTC","FILE":"3556957","BSTAR":"-0.00038589000000","GP_ID":"211673901","COUNTRY_CODE":"US","TLE_LINE2":"2 53274  53.2163 198.5355 0002328  25.6209  98.6481 15.73284793  1307","ECCENTRICITY":"0.00023280","NORAD_CAT_ID":"53274","EPHEMERIS_TYPE":"0","REV_AT_EPOCH":"130","ELEMENT_SET_NO":"999","INCLINATION":"53.2163","ARG_OF_PERICENTER":"25.6209","MEAN_MOTION_DOT":"-0.00054632","SEMIMAJOR_AXIS":"6727.653","EPOCH":"2022-09-03T22:00:00.999936","CENTER_NAME":"EARTH","DECAY_DATE":null,"SITE":"AFETR","OBJECT_TYPE":"PAYLOAD","MEAN_MOTION_DDOT":"0.0000000000000","RCS_SIZE":"LARGE","TLE_LINE1":"1 53274U 22086AJ  22246.91667824 -.00054632  00000-0 -38589-3 0  9996","PERIOD":"91.528","PERIAPSIS":"347.952","RA_OF_ASC_NODE":"198.5355","LAUNCH_DATE":"2022-07-24","MEAN_MOTION":"15.73284793","OBJECT_ID":"2022-086AJ","OBJECT_NAME":"STARLINK-4050","CLASSIFICATION_TYPE":"U","APOAPSIS":"351.085"},{"CENTER_NAME":"EARTH","EPOCH":"2022-09-03T22:00:00.999936","MEAN_MOTION_DOT":"0.00042622","SEMIMAJOR_AXIS":"6727.805","ARG_OF_PERICENTER":"4.7261","TLE_LINE1":"1 53275U 22086AK  22246.91667824  .00042622  00000-0  30609-3 0  9996","RCS_SIZE":"LARGE","MEAN_MOTION_DDOT":"0.0000000000000","SITE":"AFETR","DECAY_DATE":null,"OBJECT_TYPE":"PAYLOAD","PERIOD":"91.531","OBJECT_NAME":"STARLINK-4179","OBJECT_ID":"2022-086AK","CLASSIFICATION_TYPE":"U","APOAPSIS":"351.895","LAUNCH_DATE":"2022-07-24","MEAN_MOTION":"15.73231601","RA_OF_ASC_NODE":"198.5309","PERIAPSIS":"347.445","FILE":"3556957","BSTAR":"0.00030609000000","MEAN_ANOMALY":"121.9413","MEAN_ELEMENT_THEORY":"SGP4","TIME_SYSTEM":"UTC","REF_FRAME":"TEME","ECCENTRICITY":"0.00033070","TLE_LINE2":"2 53275  53.2164 198.5309 0003307   4.7261 121.9413 15.73231601  1307","GP_ID":"211674515","COUNTRY_CODE":"US","EPHEMERIS_TYPE":"0","NORAD_CAT_ID":"53275","ELEMENT_SET_NO":"999","INCLINATION":"53.2164","REV_AT_EPOCH":"130"},{"PERIOD":"91.528","RA_OF_ASC_NODE":"198.5367","PERIAPSIS":"347.581","MEAN_MOTION":"15.73282899","LAUNCH_DATE":"2022-07-24","CLASSIFICATION_TYPE":"U","APOAPSIS":"351.467","OBJECT_ID":"2022-086AL","OBJECT_NAME":"STARLINK-4174","ARG_OF_PERICENTER":"15.5970","SEMIMAJOR_AXIS":"6727.659","MEAN_MOTION_DOT":"-0.00055876","EPOCH":"2022-09-03T22:00:00.999936","CENTER_NAME":"EARTH","OBJECT_TYPE":"PAYLOAD","DECAY_DATE":null,"SITE":"AFETR","MEAN_MOTION_DDOT":"0.0000000000000","TLE_LINE1":"1 53276U 22086AL  22246.91667824 -.00055876  00000-0 -39482-3 0  9992","RCS_SIZE":"LARGE","NORAD_CAT_ID":"53276","EPHEMERIS_TYPE":"0","REV_AT_EPOCH":"130","ELEMENT_SET_NO":"999","INCLINATION":"53.2168","REF_FRAME":"TEME","TIME_SYSTEM":"UTC","MEAN_ELEMENT_THEORY":"SGP4","MEAN_ANOMALY":"109.8638","BSTAR":"-0.00039482000000","FILE":"3556957","COUNTRY_CODE":"US","GP_ID":"211674049","TLE_LINE2":"2 53276  53.2168 198.5367 0002888  15.5970 109.8638 15.73282899  1305","ECCENTRICITY":"0.00028880"},{"REV_AT_EPOCH":"130","ELEMENT_SET_NO":"999","INCLINATION":"53.2163","NORAD_CAT_ID":"53277","EPHEMERIS_TYPE":"0","GP_ID":"211673775","COUNTRY_CODE":"US","TLE_LINE2":"2 53277  53.2163 198.5273 0002409  24.3785 104.0884 15.73280646  1306","ECCENTRICITY":"0.00024090","REF_FRAME":"TEME","MEAN_ANOMALY":"104.0884","MEAN_ELEMENT_THEORY":"SGP4","TIME_SYSTEM":"UTC","BSTAR":"-0.00038497000000","FILE":"3556957","RA_OF_ASC_NODE":"198.5273","PERIAPSIS":"347.910","LAUNCH_DATE":"2022-07-24","MEAN_MOTION":"15.73280646","OBJECT_ID":"2022-086AM","OBJECT_NAME":"STARLINK-4178","APOAPSIS":"351.151","CLASSIFICATION_TYPE":"U","PERIOD":"91.528","DECAY_DATE":null,"SITE":"AFETR","OBJECT_TYPE":"PAYLOAD","MEAN_MOTION_DDOT":"0.0000000000000","TLE_LINE1":"1 53277U 22086AM  22246.91667824 -.00054496  00000-0 -38497-3 0  9995","RCS_SIZE":"LARGE","ARG_OF_PERICENTER":"24.3785","MEAN_MOTION_DOT":"-0.00054496","SEMIMAJOR_AXIS":"6727.665","EPOCH":"2022-09-03T22:00:00.999936","CENTER_NAME":"EARTH"},{"RCS_SIZE":"LARGE","TLE_LINE1":"1 53278U 22086AN  22246.91667824  .00043027  00000-0  30905-3 0  9998","OBJECT_TYPE":"PAYLOAD","SITE":"AFETR","DECAY_DATE":null,"MEAN_MOTION_DDOT":"0.0000000000000","EPOCH":"2022-09-03T22:00:00.999936","CENTER_NAME":"EARTH","ARG_OF_PERICENTER":"21.9102","SEMIMAJOR_AXIS":"6727.820","MEAN_MOTION_DOT":"0.00043027","MEAN_MOTION":"15.73226283","LAUNCH_DATE":"2022-07-24","APOAPSIS":"351.218","CLASSIFICATION_TYPE":"U","OBJECT_NAME":"STARLINK-4180","OBJECT_ID":"2022-086AN","RA_OF_ASC_NODE":"198.5283","PERIAPSIS":"348.153","PERIOD":"91.532","ECCENTRICITY":"0.00022780","COUNTRY_CODE":"US","GP_ID":"211673488","TLE_LINE2":"2 53278  53.2161 198.5283 0002278  21.9102 105.3591 15.73226283  1302","TIME_SYSTEM":"UTC","MEAN_ANOMALY":"105.3591","MEAN_ELEMENT_THEORY":"SGP4","FILE":"3556957","BSTAR":"0.00030905000000","REF_FRAME":"TEME","ELEMENT_SET_NO":"999","INCLINATION":"53.2161","REV_AT_EPOCH":"130","EPHEMERIS_TYPE":"0","NORAD_CAT_ID":"53278"},{"EPHEMERIS_TYPE":"0","NORAD_CAT_ID":"53280","ELEMENT_SET_NO":"999","INCLINATION":"53.2164","REV_AT_EPOCH":"130","MEAN_ELEMENT_THEORY":"SGP4","MEAN_ANOMALY":"107.7281","TIME_SYSTEM":"UTC","BSTAR":"-0.00039179000000","FILE":"3556957","REF_FRAME":"TEME","ECCENTRICITY":"0.00022610","GP_ID":"211674338","COUNTRY_CODE":"US","TLE_LINE2":"2 53280  53.2164 198.5287 0002261  20.0920 107.7281 15.73292430  1301","PERIOD":"91.528","LAUNCH_DATE":"2022-07-24","MEAN_MOTION":"15.73292430","OBJECT_ID":"2022-086AQ","OBJECT_NAME":"STARLINK-4169","APOAPSIS":"351.018","CLASSIFICATION_TYPE":"U","RA_OF_ASC_NODE":"198.5287","PERIAPSIS":"347.976","EPOCH":"2022-09-03T22:00:00.999936","CENTER_NAME":"EARTH","ARG_OF_PERICENTER":"20.0920","MEAN_MOTION_DOT":"-0.00055470","SEMIMAJOR_AXIS":"6727.632","TLE_LINE1":"1 53280U 22086AQ  22246.91667824 -.00055470  00000-0 -39179-3 0  9990","RCS_SIZE":"LARGE","DECAY_DATE":null,"SITE":"AFETR","OBJECT_TYPE":"PAYLOAD","MEAN_MOTION_DDOT":"0.0000000000000"},{"EPHEMERIS_TYPE":"0","NORAD_CAT_ID":"53281","ELEMENT_SET_NO":"999","INCLINATION":"53.2165","REV_AT_EPOCH":"130","FILE":"3556957","BSTAR":"-0.00035824000000","MEAN_ANOMALY":"113.4966","MEAN_ELEMENT_THEORY":"SGP4","TIME_SYSTEM":"UTC","REF_FRAME":"TEME","ECCENTRICITY":"0.00030310","TLE_LINE2":"2 53281  53.2165 198.5247 0003031  16.7753 113.4966 15.73277052  1308","GP_ID":"211673636","COUNTRY_CODE":"US","PERIOD":"91.529","OBJECT_ID":"2022-086AR","OBJECT_NAME":"STARLINK-4182","APOAPSIS":"351.580","CLASSIFICATION_TYPE":"U","LAUNCH_DATE":"2022-07-24","MEAN_MOTION":"15.73277052","RA_OF_ASC_NODE":"198.5247","PERIAPSIS":"347.501","CENTER_NAME":"EARTH","EPOCH":"2022-09-03T22:00:00.999936","MEAN_MOTION_DOT":"-0.00050776","SEMIMAJOR_AXIS":"6727.676","ARG_OF_PERICENTER":"16.7753","RCS_SIZE":"LARGE","TLE_LINE1":"1 53281U 22086AR  22246.91667824 -.00050776  00000-0 -35824-3 0  9998","MEAN_MOTION_DDOT":"0.0000000000000","DECAY_DATE":null,"SITE":"AFETR","OBJECT_TYPE":"PAYLOAD"},{"ARG_OF_PERICENTER":"25.2707","MEAN_MOTION_DOT":"-0.00049083","SEMIMAJOR_AXIS":"6727.661","EPOCH":"2022-09-03T22:00:00.999936","CENTER_NAME":"EARTH","DECAY_DATE":null,"SITE":"AFETR","OBJECT_TYPE":"PAYLOAD","MEAN_MOTION_DDOT":"0.0000000000000","RCS_SIZE":"LARGE","TLE_LINE1":"1 53282U 22086AS  22246.91667824 -.00049083  00000-0 -34606-3 0  9995","PERIOD":"91.528","RA_OF_ASC_NODE":"198.5276","PERIAPSIS":"347.987","LAUNCH_DATE":"2022-07-24","MEAN_MOTION":"15.73281974","OBJECT_ID":"2022-086AS","OBJECT_NAME":"STARLINK-4164","APOAPSIS":"351.066","CLASSIFICATION_TYPE":"U","REF_FRAME":"TEME","MEAN_ANOMALY":"103.7816","MEAN_ELEMENT_THEORY":"SGP4","TIME_SYSTEM":"UTC","FILE":"3556957","BSTAR":"-0.00034606000000","GP_ID":"211674190","COUNTRY_CODE":"US","TLE_LINE2":"2 53282  53.2166 198.5276 0002288  25.2707 103.7816 15.73281974  1303","ECCENTRICITY":"0.00022880","NORAD_CAT_ID":"53282","EPHEMERIS_TYPE":"0","REV_AT_EPOCH":"130","INCLINATION":"53.2166","ELEMENT_SET_NO":"999"},{"PERIAPSIS":"347.979","RA_OF_ASC_NODE":"198.5261","MEAN_MOTION":"15.73275122","LAUNCH_DATE":"2022-07-24","CLASSIFICATION_TYPE":"U","APOAPSIS":"351.113","OBJECT_ID":"2022-086AT","OBJECT_NAME":"STARLINK-4175","PERIOD":"91.529","OBJECT_TYPE":"PAYLOAD","DECAY_DATE":null,"SITE":"AFETR","MEAN_MOTION_DDOT":"0.0000000000000","RCS_SIZE":"LARGE","TLE_LINE1":"1 53283U 22086AT  22246.91667824 -.00058731  00000-0 -41555-3 0  9997","ARG_OF_PERICENTER":"23.4220","SEMIMAJOR_AXIS":"6727.681","MEAN_MOTION_DOT":"-0.00058731","EPOCH":"2022-09-03T22:00:00.999936","CENTER_NAME":"EARTH","REV_AT_EPOCH":"130","ELEMENT_SET_NO":"999","INCLINATION":"53.2170","NORAD_CAT_ID":"53283","EPHEMERIS_TYPE":"0","COUNTRY_CODE":"US","GP_ID":"211673902","TLE_LINE2":"2 53283  53.2170 198.5261 0002329  23.4220 107.4128 15.73275122  1304","ECCENTRICITY":"0.00023290","REF_FRAME":"TEME","TIME_SYSTEM":"UTC","MEAN_ANOMALY":"107.4128","MEAN_ELEMENT_THEORY":"SGP4","FILE":"3556957","BSTAR":"-0.00041555000000"},{"ARG_OF_PERICENTER":"21.9394","MEAN_MOTION_DOT":"-0.00022780","SEMIMAJOR_AXIS":"6727.802","EPOCH":"2022-09-03T22:00:00.999936","CENTER_NAME":"EARTH","DECAY_DATE":null,"SITE":"AFETR","OBJECT_TYPE":"PAYLOAD","MEAN_MOTION_DDOT":"0.0000000000000","RCS_SIZE":"LARGE","TLE_LINE1":"1 53284U 22086AU  22246.91667824 -.00022780  00000-0 -15807-3 0  9994","PERIOD":"91.531","PERIAPSIS":"348.106","RA_OF_ASC_NODE":"198.5248","LAUNCH_DATE":"2022-07-24","MEAN_MOTION":"15.73232659","OBJECT_NAME":"STARLINK-4172","OBJECT_ID":"2022-086AU","APOAPSIS":"351.228","CLASSIFICATION_TYPE":"U","REF_FRAME":"TEME","MEAN_ANOMALY":"107.7586","MEAN_ELEMENT_THEORY":"SGP4","TIME_SYSTEM":"UTC","BSTAR":"-0.00015807000000","FILE":"3556957","GP_ID":"211674516","COUNTRY_CODE":"US","TLE_LINE2":"2 53284  53.2164 198.5248 0002320  21.9394 107.7586 15.73232659  1308","ECCENTRICITY":"0.00023200","NORAD_CAT_ID":"53284","EPHEMERIS_TYPE":"0","REV_AT_EPOCH":"130","ELEMENT_SET_NO":"999","INCLINATION":"53.2164"}];
